[
  {
    "COMMENT": "GENERATED VIA SPACETRACK.ORG API",
    "ORIGINATOR": "18 SPCS",
    "NORAD_CAT_ID": "43682",
    "OBJECT_NAME": "H-2A R/B",
    "OBJECT_TYPE": "ROCKET BODY",
    "CLASSIFICATION_TYPE": "U",
    "INTLDES": "18084L",
    "EPOCH": "2019-06-17 00:49:22",
    "EPOCH_MICROSECONDS": "386432",
    "MEAN_MOTION": "15.02603036",
    "ECCENTRICITY": "0.0057167",
    "INCLINATION": "98.8789",
    "RA_OF_ASC_NODE": "316.1304",
    "ARG_OF_PERICENTER": "253.4089",
    "MEAN_ANOMALY": "106.0854",
    "EPHEMERIS_TYPE": "0",
    "ELEMENT_SET_NO": "999",
    "REV_AT_EPOCH": "3462",
    "BSTAR": "0.000015822",
    "MEAN_MOTION_DOT": "0.00000133",
    "MEAN_MOTION_DDOT": "0",
    "FILE": "2496001",
    "TLE_LINE0": "0 H-2A R/B",
    "TLE_LINE1": "1 43682U 18084L   19168.03428688  .00000133  00000-0  15822-4 0  9997",
    "TLE_LINE2": "2 43682  98.8789 316.1304 0057167 253.4089 106.0854 15.02603036 34624",
    "OBJECT_ID": "2018-084L",
    "OBJECT_NUMBER": "43682",
    "SEMIMAJOR_AXIS": "6937.010",
    "PERIOD": "95.834",
    "APOGEE": "598.532",
    "PERIGEE": "519.218",
    "DECAYED": "0"
  },
  {
    "COMMENT": "GENERATED VIA SPACETRACK.ORG API",
    "ORIGINATOR": "18 SPCS",
    "NORAD_CAT_ID": "43682",
    "OBJECT_NAME": "H-2A R/B",
    "OBJECT_TYPE": "ROCKET BODY",
    "CLASSIFICATION_TYPE": "U",
    "INTLDES": "18084L",
    "EPOCH": "2019-06-17 23:11:51",
    "EPOCH_MICROSECONDS": "301536",
    "MEAN_MOTION": "15.02605182",
    "ECCENTRICITY": "0.0057193",
    "INCLINATION": "98.8789",
    "RA_OF_ASC_NODE": "317.1974",
    "ARG_OF_PERICENTER": "250.4879",
    "MEAN_ANOMALY": "109.0159",
    "EPHEMERIS_TYPE": "0",
    "ELEMENT_SET_NO": "999",
    "REV_AT_EPOCH": "3476",
    "BSTAR": "0.000030772",
    "MEAN_MOTION_DOT": "0.00000339",
    "MEAN_MOTION_DDOT": "0",
    "FILE": "2496401",
    "TLE_LINE0": "0 H-2A R/B",
    "TLE_LINE1": "1 43682U 18084L   19168.96656599 +.00000339 +00000-0 +30772-4 0  9992",
    "TLE_LINE2": "2 43682 098.8789 317.1974 0057193 250.4879 109.0159 15.02605182034761",
    "OBJECT_ID": "2018-084L",
    "OBJECT_NUMBER": "43682",
    "SEMIMAJOR_AXIS": "6937.004",
    "PERIOD": "95.834",
    "APOGEE": "598.543",
    "PERIGEE": "519.194",
    "DECAYED": "0"
  },
  {
    "COMMENT": "GENERATED VIA SPACETRACK.ORG API",
    "ORIGINATOR": "18 SPCS",
    "NORAD_CAT_ID": "43682",
    "OBJECT_NAME": "H-2A R/B",
    "OBJECT_TYPE": "ROCKET BODY",
    "CLASSIFICATION_TYPE": "U",
    "INTLDES": "18084L",
    "EPOCH": "2019-06-18 05:35:25",
    "EPOCH_MICROSECONDS": "269504",
    "MEAN_MOTION": "15.02605821",
    "ECCENTRICITY": "0.0057152",
    "INCLINATION": "98.879",
    "RA_OF_ASC_NODE": "317.5022",
    "ARG_OF_PERICENTER": "249.4639",
    "MEAN_ANOMALY": "110.0451",
    "EPHEMERIS_TYPE": "0",
    "ELEMENT_SET_NO": "999",
    "REV_AT_EPOCH": "3480",
    "BSTAR": "0.000034848",
    "MEAN_MOTION_DOT": "0.00000395",
    "MEAN_MOTION_DDOT": "0",
    "FILE": "2496461",
    "TLE_LINE0": "0 H-2A R/B",
    "TLE_LINE1": "1 43682U 18084L   19169.23293136  .00000395  00000-0  34848-4 0  9997",
    "TLE_LINE2": "2 43682  98.8790 317.5022 0057152 249.4639 110.0451 15.02605821 34800",
    "OBJECT_ID": "2018-084L",
    "OBJECT_NUMBER": "43682",
    "SEMIMAJOR_AXIS": "6937.002",
    "PERIOD": "95.834",
    "APOGEE": "598.513",
    "PERIGEE": "519.220",
    "DECAYED": "0"
  },
  {
    "COMMENT": "GENERATED VIA SPACETRACK.ORG API",
    "ORIGINATOR": "18 SPCS",
    "NORAD_CAT_ID": "43682",
    "OBJECT_NAME": "H-2A R/B",
    "OBJECT_TYPE": "ROCKET BODY",
    "CLASSIFICATION_TYPE": "U",
    "INTLDES": "18084L",
    "EPOCH": "2019-06-18 23:10:13",
    "EPOCH_MICROSECONDS": "647072",
    "MEAN_MOTION": "15.02607331",
    "ECCENTRICITY": "0.0057294",
    "INCLINATION": "98.8791",
    "RA_OF_ASC_NODE": "318.3406",
    "ARG_OF_PERICENTER": "247.022",
    "MEAN_ANOMALY": "112.495",
    "EPHEMERIS_TYPE": "0",
    "ELEMENT_SET_NO": "999",
    "REV_AT_EPOCH": "3491",
    "BSTAR": "0.000041802",
    "MEAN_MOTION_DOT": "0.00000491",
    "MEAN_MOTION_DDOT": "0",
    "FILE": "2496919",
    "TLE_LINE0": "0 H-2A R/B",
    "TLE_LINE1": "1 43682U 18084L   19169.96543573 +.00000491 +00000-0 +41802-4 0  9995",
    "TLE_LINE2": "2 43682 098.8791 318.3406 0057294 247.0220 112.4950 15.02607331034913",
    "OBJECT_ID": "2018-084L",
    "OBJECT_NUMBER": "43682",
    "SEMIMAJOR_AXIS": "6936.997",
    "PERIOD": "95.833",
    "APOGEE": "598.607",
    "PERIGEE": "519.117",
    "DECAYED": "0"
  },
  {
    "COMMENT": "GENERATED VIA SPACETRACK.ORG API",
    "ORIGINATOR": "18 SPCS",
    "NORAD_CAT_ID": "43682",
    "OBJECT_NAME": "H-2A R/B",
    "OBJECT_TYPE": "ROCKET BODY",
    "CLASSIFICATION_TYPE": "U",
    "INTLDES": "18084L",
    "EPOCH": "2019-06-19 10:21:27",
    "EPOCH_MICROSECONDS": "894240",
    "MEAN_MOTION": "15.02609746",
    "ECCENTRICITY": "0.0057273",
    "INCLINATION": "98.8793",
    "RA_OF_ASC_NODE": "318.8738",
    "ARG_OF_PERICENTER": "245.5844",
    "MEAN_ANOMALY": "113.9388",
    "EPHEMERIS_TYPE": "0",
    "ELEMENT_SET_NO": "999",
    "REV_AT_EPOCH": "3498",
    "BSTAR": "0.000059794",
    "MEAN_MOTION_DOT": "0.0000074",
    "MEAN_MOTION_DDOT": "0",
    "FILE": "2497141",
    "TLE_LINE0": "0 H-2A R/B",
    "TLE_LINE1": "1 43682U 18084L   19170.43157285  .00000740  00000-0  59794-4 0  9996",
    "TLE_LINE2": "2 43682  98.8793 318.8738 0057273 245.5844 113.9388 15.02609746 34980",
    "OBJECT_ID": "2018-084L",
    "OBJECT_NUMBER": "43682",
    "SEMIMAJOR_AXIS": "6936.990",
    "PERIOD": "95.833",
    "APOGEE": "598.585",
    "PERIGEE": "519.124",
    "DECAYED": "0"
  },
  {
    "COMMENT": "GENERATED VIA SPACETRACK.ORG API",
    "ORIGINATOR": "18 SPCS",
    "NORAD_CAT_ID": "43682",
    "OBJECT_NAME": "H-2A R/B",
    "OBJECT_TYPE": "ROCKET BODY",
    "CLASSIFICATION_TYPE": "U",
    "INTLDES": "18084L",
    "EPOCH": "2019-06-19 23:08:35",
    "EPOCH_MICROSECONDS": "824992",
    "MEAN_MOTION": "15.02610551",
    "ECCENTRICITY": "0.0057275",
    "INCLINATION": "98.8793",
    "RA_OF_ASC_NODE": "319.4836",
    "ARG_OF_PERICENTER": "243.8073",
    "MEAN_ANOMALY": "115.7252",
    "EPHEMERIS_TYPE": "0",
    "ELEMENT_SET_NO": "999",
    "REV_AT_EPOCH": "3506",
    "BSTAR": "0.000059122",
    "MEAN_MOTION_DOT": "0.0000073",
    "MEAN_MOTION_DDOT": "0",
    "FILE": "2497372",
    "TLE_LINE0": "0 H-2A R/B",
    "TLE_LINE1": "1 43682U 18084L   19170.96430353 +.00000730 +00000-0 +59122-4 0  9998",
    "TLE_LINE2": "2 43682 098.8793 319.4836 0057275 243.8073 115.7252 15.02610551035069",
    "OBJECT_ID": "2018-084L",
    "OBJECT_NUMBER": "43682",
    "SEMIMAJOR_AXIS": "6936.987",
    "PERIOD": "95.833",
    "APOGEE": "598.584",
    "PERIGEE": "519.120",
    "DECAYED": "0"
  },
  {
    "COMMENT": "GENERATED VIA SPACETRACK.ORG API",
    "ORIGINATOR": "18 SPCS",
    "NORAD_CAT_ID": "43682",
    "OBJECT_NAME": "H-2A R/B",
    "OBJECT_TYPE": "ROCKET BODY",
    "CLASSIFICATION_TYPE": "U",
    "INTLDES": "18084L",
    "EPOCH": "2019-06-20 21:31:04",
    "EPOCH_MICROSECONDS": "538784",
    "MEAN_MOTION": "15.02612874",
    "ECCENTRICITY": "0.0057255",
    "INCLINATION": "98.8793",
    "RA_OF_ASC_NODE": "320.5501",
    "ARG_OF_PERICENTER": "240.7899",
    "MEAN_ANOMALY": "118.7588",
    "EPHEMERIS_TYPE": "0",
    "ELEMENT_SET_NO": "999",
    "REV_AT_EPOCH": "3520",
    "BSTAR": "0.000065986",
    "MEAN_MOTION_DOT": "0.00000825",
    "MEAN_MOTION_DDOT": "0",
    "FILE": "2497817",
    "TLE_LINE0": "0 H-2A R/B",
    "TLE_LINE1": "1 43682U 18084L   19171.89658031  .00000825  00000-0  65986-4 0  9996",
    "TLE_LINE2": "2 43682  98.8793 320.5501 0057255 240.7899 118.7588 15.02612874 35202",
    "OBJECT_ID": "2018-084L",
    "OBJECT_NUMBER": "43682",
    "SEMIMAJOR_AXIS": "6936.980",
    "PERIOD": "95.833",
    "APOGEE": "598.563",
    "PERIGEE": "519.127",
    "DECAYED": "0"
  },
  {
    "COMMENT": "GENERATED VIA SPACETRACK.ORG API",
    "ORIGINATOR": "18 SPCS",
    "NORAD_CAT_ID": "43682",
    "OBJECT_NAME": "H-2A R/B",
    "OBJECT_TYPE": "ROCKET BODY",
    "CLASSIFICATION_TYPE": "U",
    "INTLDES": "18084L",
    "EPOCH": "2019-06-20 23:06:58",
    "EPOCH_MICROSECONDS": "23648",
    "MEAN_MOTION": "15.02612974",
    "ECCENTRICITY": "0.0057255",
    "INCLINATION": "98.8793",
    "RA_OF_ASC_NODE": "320.6263",
    "ARG_OF_PERICENTER": "240.5612",
    "MEAN_ANOMALY": "118.9888",
    "EPHEMERIS_TYPE": "0",
    "ELEMENT_SET_NO": "999",
    "REV_AT_EPOCH": "3521",
    "BSTAR": "0.00006576",
    "MEAN_MOTION_DOT": "0.00000822",
    "MEAN_MOTION_DDOT": "0",
    "FILE": "2497913",
    "TLE_LINE0": "0 H-2A R/B",
    "TLE_LINE1": "1 43682U 18084L   19171.96317157 +.00000822 +00000-0 +65760-4 0  9992",
    "TLE_LINE2": "2 43682 098.8793 320.6263 0057255 240.5612 118.9888 15.02612974035216",
    "OBJECT_ID": "2018-084L",
    "OBJECT_NUMBER": "43682",
    "SEMIMAJOR_AXIS": "6936.980",
    "PERIOD": "95.833",
    "APOGEE": "598.562",
    "PERIGEE": "519.127",
    "DECAYED": "0"
  }
]